{"fetched_at":"2026-07-09T08:01:38.364Z","source":"https://celestrak.org/NORAD/elements/gp.php?NAME=WORLDVIEW&FORMAT=JSON","constellation":"worldview","records":[{"OBJECT_NAME":"WORLDVIEW-1 (WV-1)","OBJECT_ID":"2007-041A","EPOCH":"2026-07-08T22:53:48.310368","CLASSIFICATION_TYPE":"U","MEAN_MOTION":15.24512421,"ECCENTRICITY":0.00010074,"INCLINATION":97.3891,"RA_OF_ASC_NODE":309.3908,"ARG_OF_PERICENTER":244.9486,"MEAN_ANOMALY":115.1647,"EPHEMERIS_TYPE":0,"NORAD_CAT_ID":32060,"ELEMENT_SET_NO":999,"REV_AT_EPOCH":4619,"BSTAR":0.00016765855,"MEAN_MOTION_DOT":0.00004052,"MEAN_MOTION_DDOT":0},{"OBJECT_NAME":"WORLDVIEW-2 (WV-2)","OBJECT_ID":"2009-055A","EPOCH":"2026-07-08T22:39:38.037600","CLASSIFICATION_TYPE":"U","MEAN_MOTION":14.3790577,"ECCENTRICITY":0.00050388,"INCLINATION":98.4758,"RA_OF_ASC_NODE":263.0973,"ARG_OF_PERICENTER":145.1089,"MEAN_ANOMALY":215.0429,"EPHEMERIS_TYPE":0,"NORAD_CAT_ID":35946,"ELEMENT_SET_NO":999,"REV_AT_EPOCH":87877,"BSTAR":0.000029908825,"MEAN_MOTION_DOT":4.7e-7,"MEAN_MOTION_DDOT":0},{"OBJECT_NAME":"WORLDVIEW-3 (WV-3)","OBJECT_ID":"2014-048A","EPOCH":"2026-07-08T22:20:34.716768","CLASSIFICATION_TYPE":"U","MEAN_MOTION":14.85057801,"ECCENTRICITY":0.00008046,"INCLINATION":97.8558,"RA_OF_ASC_NODE":264.4632,"ARG_OF_PERICENTER":164.6333,"MEAN_ANOMALY":195.4907,"EPHEMERIS_TYPE":0,"NORAD_CAT_ID":40115,"ELEMENT_SET_NO":999,"REV_AT_EPOCH":64513,"BSTAR":0.000072337715,"MEAN_MOTION_DOT":0.00000564,"MEAN_MOTION_DDOT":0}]}
